{"type": "FeatureCollection", "features": [ {"type": "Feature", "properties": {"norad_id": 33492, "name": "GOSAT (IBUKI)", "group": "resource", "lat": 75.2815054656655, "lon": -40.42768879028431, "alt_km": 661.0418666188825, "timestamp": "2025-12-24T09:46:30.652141+00:00", "meta": {"OBJECT_NAME": "GOSAT (IBUKI)", "OBJECT_ID": "2009-002A", "EPOCH": "2025-12-24T02:45:54.861120", "MEAN_MOTION": 14.67546106, "ECCENTRICITY": 0.0001013, "INCLINATION": 98.0771, "RA_OF_ASC_NODE": 106.5605, "ARG_OF_PERICENTER": 104.5957, "MEAN_ANOMALY": 255.536, "EPHEMERIS_TYPE": 0, "CLASSIFICATION_TYPE": "U", "NORAD_CAT_ID": 33492, "ELEMENT_SET_NO": 999, "REV_AT_EPOCH": 90578, "BSTAR": 0.00015247, "MEAN_MOTION_DOT": 8.17e-06, "MEAN_MOTION_DDOT": 0}, "tle": {"line1": "1 33492U 09002A   25358.11521830  .00000817  00000+0  15247-3 0  9993", "line2": "2 33492  98.0771 106.5605 0001013 104.5957 255.5360 14.67546106905789"}}, "geometry": {"type": "Point", "coordinates": [-40.42768879028431, 75.2815054656655]}}, {"type": "Feature", "properties": {"norad_id": 35681, "name": "DEIMOS-1", "group": "resource", "lat": 48.38700812539768, "lon": -12.753093535746784, "alt_km": 640.3336465807515, "timestamp": "2025-12-24T09:46:30.652152+00:00", "meta": {"OBJECT_NAME": "DEIMOS-1", "OBJECT_ID": "2009-041A", "EPOCH": "2025-12-24T04:17:57.518880", "MEAN_MOTION": 14.74969473, "ECCENTRICITY": 0.0002491, "INCLINATION": 97.7153, "RA_OF_ASC_NODE": 158.2504, "ARG_OF_PERICENTER": 61.3891, "MEAN_ANOMALY": 298.7569, "EPHEMERIS_TYPE": 0, "CLASSIFICATION_TYPE": "U", "NORAD_CAT_ID": 35681, "ELEMENT_SET_NO": 999, "REV_AT_EPOCH": 88108, "BSTAR": 0.00012647, "MEAN_MOTION_DOT": 8.03e-06, "MEAN_MOTION_DDOT": 0}, "tle": {"line1": "1 35681U 09041A   25358.17913795  .00000803  00000+0  12647-3 0  9995", "line2": "2 35681  97.7153 158.2504 0002491  61.3891 298.7569 14.74969473881081"}}, "geometry": {"type": "Point", "coordinates": [-12.753093535746784, 48.38700812539768]}}, {"type": "Feature", "properties": {"norad_id": 35682, "name": "DUBAISAT-1", "group": "resource", "lat": 51.01947817031855, "lon": 118.93338292033273, "alt_km": 646.5383735300829, "timestamp": "2025-12-24T09:46:30.652163+00:00", "meta": {"OBJECT_NAME": "DUBAISAT-1", "OBJECT_ID": "2009-041B", "EPOCH": "2025-12-24T03:01:38.172000", "MEAN_MOTION": 14.74633676, "ECCENTRICITY": 0.0009261, "INCLINATION": 97.9797, "RA_OF_ASC_NODE": 128.6387, "ARG_OF_PERICENTER": 273.5108, "MEAN_ANOMALY": 86.5042, "EPHEMERIS_TYPE": 0, "CLASSIFICATION_TYPE": "U", "NORAD_CAT_ID": 35682, "ELEMENT_SET_NO": 999, "REV_AT_EPOCH": 87929, "BSTAR": 0.00019234, "MEAN_MOTION_DOT": 1.233e-05, "MEAN_MOTION_DDOT": 0}, "tle": {"line1": "1 35682U 09041B   25358.12613625  .00001233  00000+0  19234-3 0  9997", "line2": "2 35682  97.9797 128.6387 0009261 273.5108  86.5042 14.74633676879290"}}, "geometry": {"type": "Point", "coordinates": [118.93338292033273, 51.01947817031855]}}, {"type": "Feature", "properties": {"norad_id": 35931, "name": "OCEANSAT-2", "group": "resource", "lat": -36.1289579458869, "lon": 3.882288984357064, "alt_km": 894.0370526099405, "timestamp": "2025-12-24T09:46:30.652174+00:00", "meta": {"OBJECT_NAME": "OCEANSAT-2", "OBJECT_ID": "2009-051A", "EPOCH": "2025-12-24T04:48:07.017408", "MEAN_MOTION": 13.99622888, "ECCENTRICITY": 0.0015918, "INCLINATION": 98.2218, "RA_OF_ASC_NODE": 357.6377, "ARG_OF_PERICENTER": 14.9356, "MEAN_ANOMALY": 345.2278, "EPHEMERIS_TYPE": 0, "CLASSIFICATION_TYPE": "U", "NORAD_CAT_ID": 35931, "ELEMENT_SET_NO": 999, "REV_AT_EPOCH": 85485, "BSTAR": -5.0728e-06, "MEAN_MOTION_DOT": -4.5e-07, "MEAN_MOTION_DDOT": 0}, "tle": {"line1": "1 35931U 09051A   25358.20008122 -.00000045  00000+0 -50728-5 0  9991", "line2": "2 35931  98.2218 357.6377 0015918  14.9356 345.2278 13.99622888854850"}}, "geometry": {"type": "Point", "coordinates": [3.882288984357064, -36.1289579458869]}}, {"type": "Feature", "properties": {"norad_id": 35946, "name": "WORLDVIEW-2 (WV-2)", "group": "resource", "lat": -62.31135513068128, "lon": -127.18015466642163, "alt_km": 776.3316667313493, "timestamp": "2025-12-24T09:46:30.652185+00:00", "meta": {"OBJECT_NAME": "WORLDVIEW-2 (WV-2)", "OBJECT_ID": "2009-055A", "EPOCH": "2025-12-24T03:38:07.211904", "MEAN_MOTION": 14.37728903, "ECCENTRICITY": 0.0004758, "INCLINATION": 98.4773, "RA_OF_ASC_NODE": 69.0793, "ARG_OF_PERICENTER": 42.5829, "MEAN_ANOMALY": 317.5727, "EPHEMERIS_TYPE": 0, "CLASSIFICATION_TYPE": "U", "NORAD_CAT_ID": 35946, "ELEMENT_SET_NO": 999, "REV_AT_EPOCH": 85049, "BSTAR": 7.0857e-05, "MEAN_MOTION_DOT": 1.7e-06, "MEAN_MOTION_DDOT": 0}, "tle": {"line1": "1 35946U 09055A   25358.15147236  .00000170  00000+0  70857-4 0  9996", "line2": "2 35946  98.4773  69.0793 0004758  42.5829 317.5727 14.37728903850497"}}, "geometry": {"type": "Point", "coordinates": [-127.18015466642163, -62.31135513068128]}}, {"type": "Feature", "properties": {"norad_id": 36036, "name": "SMOS", "group": "resource", "lat": 3.496843307847461, "lon": -177.23690836977374, "alt_km": 761.6457933231568, "timestamp": "2025-12-24T09:46:30.652196+00:00", "meta": {"OBJECT_NAME": "SMOS", "OBJECT_ID": "2009-059A", "EPOCH": "2025-12-24T03:05:13.665696", "MEAN_MOTION": 14.39751102, "ECCENTRICITY": 0.0001058, "INCLINATION": 98.4381, "RA_OF_ASC_NODE": 183.0084, "ARG_OF_PERICENTER": 82.5241, "MEAN_ANOMALY": 277.6067, "EPHEMERIS_TYPE": 0, "CLASSIFICATION_TYPE": "U", "NORAD_CAT_ID": 36036, "ELEMENT_SET_NO": 999, "REV_AT_EPOCH": 84826, "BSTAR": 0.00013575, "MEAN_MOTION_DOT": 3.82e-06, "MEAN_MOTION_DDOT": 0}, "tle": {"line1": "1 36036U 09059A   25358.12863039  .00000382  00000+0  13575-3 0  9992", "line2": "2 36036  98.4381 183.0084 0001058  82.5241 277.6067 14.39751102848269"}}, "geometry": {"type": "Point", "coordinates": [-177.23690836977374, 3.496843307847461]}}, {"type": "Feature", "properties": {"norad_id": 36110, "name": "YAOGAN-7", "group": "resource", "lat": -17.77426949772704, "lon": -117.28415638405185, "alt_km": 644.4340139907854, "timestamp": "2025-12-24T09:46:30.652206+00:00", "meta": {"OBJECT_NAME": "YAOGAN-7", "OBJECT_ID": "2009-069A", "EPOCH": "2025-12-24T03:21:21.813984", "MEAN_MOTION": 14.77748272, "ECCENTRICITY": 0.0023428, "INCLINATION": 98.0295, "RA_OF_ASC_NODE": 239.8558, "ARG_OF_PERICENTER": 242.419, "MEAN_ANOMALY": 117.4641, "EPHEMERIS_TYPE": 0, "CLASSIFICATION_TYPE": "U", "NORAD_CAT_ID": 36110, "ELEMENT_SET_NO": 999, "REV_AT_EPOCH": 86377, "BSTAR": 9.2579e-05, "MEAN_MOTION_DOT": 6.13e-06, "MEAN_MOTION_DDOT": 0}, "tle": {"line1": "1 36110U 09069A   25358.13983581  .00000613  00000+0  92579-4 0  9991", "line2": "2 36110  98.0295 239.8558 0023428 242.4190 117.4641 14.77748272863771"}}, "geometry": {"type": "Point", "coordinates": [-117.28415638405185, -17.77426949772704]}}, {"type": "Feature", "properties": {"norad_id": 36605, "name": "TANDEM-X", "group": "resource", "lat": 15.848012388348897, "lon": -174.25569229183833, "alt_km": 508.8678166007421, "timestamp": "2025-12-24T09:46:30.652217+00:00", "meta": {"OBJECT_NAME": "TANDEM-X", "OBJECT_ID": "2010-030A", "EPOCH": "2025-12-23T10:55:27.931296", "MEAN_MOTION": 15.19148406, "ECCENTRICITY": 0.00017726, "INCLINATION": 97.4453, "RA_OF_ASC_NODE": 2.6785, "ARG_OF_PERICENTER": 93.7268, "MEAN_ANOMALY": 266.4169, "EPHEMERIS_TYPE": 0, "CLASSIFICATION_TYPE": "U", "NORAD_CAT_ID": 36605, "ELEMENT_SET_NO": 999, "REV_AT_EPOCH": 85996, "BSTAR": 4.175648e-05, "MEAN_MOTION_DOT": 8.1e-06, "MEAN_MOTION_DDOT": 0}, "tle": {"line1": "1 36605U 10030A   25357.45518439  .00000810  00000+0  41756-4 0  9990", "line2": "2 36605  97.4453   2.6785 0001772  93.7268 266.4169 15.19148406859964"}}, "geometry": {"type": "Point", "coordinates": [-174.25569229183833, 15.848012388348897]}}, {"type": "Feature", "properties": {"norad_id": 36795, "name": "CARTOSAT-2B", "group": "resource", "lat": -48.93264595734318, "lon": 56.08869640705543, "alt_km": 640.4033127793791, "timestamp": "2025-12-24T09:46:30.652227+00:00", "meta": {"OBJECT_NAME": "CARTOSAT-2B", "OBJECT_ID": "2010-035A", "EPOCH": "2025-12-24T03:30:09.629856", "MEAN_MOTION": 14.78739339, "ECCENTRICITY": 0.0012621, "INCLINATION": 97.7834, "RA_OF_ASC_NODE": 46.8046, "ARG_OF_PERICENTER": 42.8426, "MEAN_ANOMALY": 317.3767, "EPHEMERIS_TYPE": 0, "CLASSIFICATION_TYPE": "U", "NORAD_CAT_ID": 36795, "ELEMENT_SET_NO": 999, "REV_AT_EPOCH": 83398, "BSTAR": 4.5909e-05, "MEAN_MOTION_DOT": 2.87e-06, "MEAN_MOTION_DDOT": 0}, "tle": {"line1": "1 36795U 10035A   25358.14594479  .00000287  00000+0  45909-4 0  9992", "line2": "2 36795  97.7834  46.8046 0012621  42.8426 317.3767 14.78739339833985"}}, "geometry": {"type": "Point", "coordinates": [56.08869640705543, -48.93264595734318]}}, {"type": "Feature", "properties": {"norad_id": 36834, "name": "YAOGAN-10", "group": "resource", "lat": -78.5762160780164, "lon": 61.635697643700226, "alt_km": 622.9363369624698, "timestamp": "2025-12-24T09:46:30.652238+00:00", "meta": {"OBJECT_NAME": "YAOGAN-10", "OBJECT_ID": "2010-038A", "EPOCH": "2025-12-24T05:20:28.601664", "MEAN_MOTION": 14.84649965, "ECCENTRICITY": 0.0001368, "INCLINATION": 97.9128, "RA_OF_ASC_NODE": 17.9566, "ARG_OF_PERICENTER": 81.0935, "MEAN_ANOMALY": 290.3757, "EPHEMERIS_TYPE": 0, "CLASSIFICATION_TYPE": "U", "NORAD_CAT_ID": 36834, "ELEMENT_SET_NO": 999, "REV_AT_EPOCH": 83124, "BSTAR": 0.00029076, "MEAN_MOTION_DOT": 2.405e-05, "MEAN_MOTION_DDOT": 0}, "tle": {"line1": "1 36834U 10038A   25358.22255326  .00002405  00000+0  29076-3 0  9993", "line2": "2 36834  97.9128  17.9566 0001368  81.0935 290.3757 14.84649965831247"}}, "geometry": {"type": "Point", "coordinates": [61.635697643700226, -78.5762160780164]}}]}